[{"OBJECT_NAME":"STARLINK-34371","OBJECT_ID":"2025-147B","EPOCH":"2026-03-09T22:00:46.493856","MEAN_MOTION":15.30181635,"ECCENTRICITY":9.34e-5,"INCLINATION":53.1582,"RA_OF_ASC_NODE":241.9037,"ARG_OF_PERICENTER":71.4749,"MEAN_ANOMALY":288.6353,"EPHEMERIS_TYPE":0,"CLASSIFICATION_TYPE":"U","NORAD_CAT_ID":64756,"ELEMENT_SET_NO":999,"REV_AT_EPOCH":3873,"BSTAR":0.0009479254,"MEAN_MOTION_DOT":0.00027805,"MEAN_MOTION_DDOT":0},{"OBJECT_NAME":"ELECTRON KICK STAGE R\/B","OBJECT_ID":"2024-248B","EPOCH":"2026-03-09T20:49:52.700448","MEAN_MOTION":15.26602112,"ECCENTRICITY":0.00382118,"INCLINATION":97.6105,"RA_OF_ASC_NODE":34.9036,"ARG_OF_PERICENTER":284.4829,"MEAN_ANOMALY":75.2171,"EPHEMERIS_TYPE":0,"CLASSIFICATION_TYPE":"U","NORAD_CAT_ID":62407,"ELEMENT_SET_NO":999,"REV_AT_EPOCH":6727,"BSTAR":0.0006831254,"MEAN_MOTION_DOT":0.00018217,"MEAN_MOTION_DDOT":0}]
